[Satellite]
VERSION=1.1
NAME=SL-8 R/B
NICKNAME=SL-8 R/B
TLE1=1 21088U 91006B   15054.73429809  .00000031  00000-0  15487-4 0  9995
TLE2=2 21088  82.9410 287.9556 0023239 161.2248 261.8902 13.76986235209380
